OBJECT_NAME,OBJECT_ID,EPOCH,MEAN_MOTION,ECCENTRICITY,INCLINATION,RA_OF_ASC_NODE,ARG_OF_PERICENTER,MEAN_ANOMALY,EPHEMERIS_TYPE,CLASSIFICATION_TYPE,NORAD_CAT_ID,ELEMENT_SET_NO,REV_AT_EPOCH,BSTAR,MEAN_MOTION_DOT,MEAN_MOTION_DDOT
ONEWEB-0211,2021-045A,2026-06-25T04:09:09.862848,13.16196717,.0002202,87.9004,257.4892,118.2813,241.8540,0,U,48767,999,24549,-.34509E-3,-.118E-5,0
ONEWEB-0223,2021-045B,2026-06-25T04:18:10.478016,13.15549848,.0001887,87.9009,257.5989,112.1845,247.9486,0,U,48768,999,24545,-.46781E-3,-.163E-5,0
ONEWEB-0230,2021-045C,2026-06-24T03:53:18.640320,13.15548870,.00020197,87.8999,257.8140,95.4138,264.7223,0,U,48769,999,24558,-.4916516E-4,-.6E-7,0
ONEWEB-0237,2021-045D,2026-06-24T03:37:19.984800,13.15547647,.00017979,87.9000,257.8181,105.2428,254.8901,0,U,48770,999,24530,.32811228E-3,.136E-5,0
ONEWEB-0235,2021-045E,2026-06-25T04:34:08.840640,13.15548763,.0001823,87.9007,257.5976,111.5149,248.6175,0,U,48771,999,24543,-.15938E-3,-.47E-6,0
ONEWEB-0242,2021-045F,2026-06-25T04:25:00.725088,13.15547563,.0001829,87.9011,257.5960,101.6186,258.5150,0,U,48772,999,24547,-.27871E-3,-.92E-6,0
ONEWEB-0241,2021-045G,2026-06-25T04:06:45.840096,13.15548788,.0002068,87.8995,257.6144,111.8882,248.2468,0,U,48773,999,24538,-.52724E-3,-.186E-5,0
ONEWEB-0243,2021-045H,2026-06-24T05:08:36.005568,13.15549312,.00014465,87.8999,257.8187,101.0389,259.0904,0,U,48774,999,24528,.34890172E-3,.144E-5,0
ONEWEB-0222,2021-045J,2026-06-25T04:28:25.760928,13.15549406,.0002002,87.9009,257.5934,106.8358,253.2992,0,U,48775,999,24545,-.27768E-3,-.92E-6,0
ONEWEB-0244,2021-045K,2026-06-24T03:32:46.425120,13.15549358,.0001881,87.9014,257.7951,102.6268,257.5072,0,U,48776,999,24588,.33859974E-3,.14E-5,0
ONEWEB-0247,2021-045L,2026-06-24T05:17:43.983744,13.15548058,.0001304,87.8999,257.8120,117.0129,243.1134,0,U,48777,999,24533,.37732561E-3,.155E-5,0
ONEWEB-0245,2021-045M,2026-06-24T05:10:53.042016,13.15548124,.0002025,87.9010,257.7927,105.5871,254.5483,0,U,48778,999,24530,.40584261E-3,.166E-5,0
ONEWEB-0229,2021-045N,2026-06-24T05:04:02.235072,13.15549416,.00019217,87.9005,257.7916,100.4481,259.6866,0,U,48779,999,24533,.29822593E-3,.125E-5,0
ONEWEB-0228,2021-045P,2026-06-25T03:46:25.368384,13.15547334,.0001889,87.9022,257.5962,102.3229,257.8113,0,U,48780,999,24537,-.17486E-4,.6E-7,0
ONEWEB-0232,2021-045Q,2026-06-24T05:15:26.324352,13.15546838,.00020224,87.9013,257.7839,102.0504,258.0853,0,U,48781,999,24557,.61348774E-3,.244E-5,0
ONEWEB-0231,2021-045R,2026-06-25T04:27:17.294112,13.15549469,.000193,87.9007,257.6043,107.4059,252.7282,0,U,48782,999,24539,-.27455E-3,-.91E-6,0
ONEWEB-0234,2021-045S,2026-06-24T03:48:32.455872,13.15548920,.00028237,87.9007,257.7902,104.0201,256.1244,0,U,48783,999,24539,-.3280446E-5,.12E-6,0
ONEWEB-0238,2021-045T,2026-06-24T03:48:56.329056,13.15548062,.00024451,87.9014,257.7851,102.9890,257.1514,0,U,48784,999,24529,-.3529E-7,.13E-6,0
ONEWEB-0240,2021-045U,2026-06-25T04:03:20.304864,13.15548416,.000209,87.9012,257.5942,109.3887,250.7469,0,U,48785,999,24545,-.19055E-3,-.59E-6,0
ONEWEB-0246,2021-045V,2026-06-25T03:55:20.890272,13.15549796,.0001879,87.9011,257.5993,99.7698,260.3645,0,U,48786,999,24532,-.20184E-3,-.63E-6,0
ONEWEB-0210,2021-045W,2026-06-24T03:35:02.161248,13.15547379,.0001159,87.9006,257.7983,105.0561,255.0698,0,U,48787,999,24523,.11123221E-3,.55E-6,0
ONEWEB-0214,2021-045X,2026-06-24T03:47:35.513952,13.15549531,.00017292,87.9012,257.7934,92.4630,267.6699,0,U,48788,999,24520,.21908961E-3,.95E-6,0
ONEWEB-0221,2021-045Y,2026-06-24T03:57:52.369344,13.15548833,.00018968,87.9010,257.8005,105.2004,254.9336,0,U,48789,999,24529,-.79821369E-4,-.17E-6,0
ONEWEB-0213,2021-045Z,2026-06-24T03:41:53.766528,13.15547337,.00017537,87.9009,257.8061,105.5985,254.5339,0,U,48790,999,24535,.12517987E-3,.6E-6,0
ONEWEB-0212,2021-045AA,2026-06-25T04:42:06.248160,13.15550381,.000205,87.9011,257.5931,100.2030,259.9332,0,U,48791,999,24548,.94651E-4,.48E-6,0
ONEWEB-0227,2021-045AB,2026-06-25T04:40:59.136096,13.15549176,.0002041,87.9006,257.5938,103.0653,257.0705,0,U,48792,999,24543,-.35124E-4,0,0
ONEWEB-0226,2021-045AC,2026-06-25T04:31:50.243808,13.15546942,.0001759,87.9003,257.5996,103.0020,257.1307,0,U,48793,999,24540,-.1405E-3,-.4E-6,0
ONEWEB-0224,2021-045AD,2026-06-24T03:55:35.201568,13.15547621,.00026433,87.9001,257.8372,116.5176,243.6225,0,U,48794,999,24519,-.31407671E-4,.1E-7,0
ONEWEB-0233,2021-045AE,2026-06-25T00:06:58.980384,13.15548588,.0001924,87.9001,257.6773,108.9024,251.2315,0,U,48795,999,24532,-.63569E-4,-.11E-6,0
ONEWEB-0190,2021-045AF,2026-06-24T03:44:10.543776,13.15547031,.00015389,87.9004,257.8086,118.0674,242.0612,0,U,48796,999,24528,.13286666E-4,.18E-6,0
