ONEWEB-0211             
1 48767U 21045A   26176.17303082 -.00000118  00000+0 -34509-3 0  9995
2 48767  87.9004 257.4892 0002202 118.2813 241.8540 13.16196717245499
ONEWEB-0223             
1 48768U 21045B   26176.17928794 -.00000163  00000+0 -46781-3 0  9994
2 48768  87.9009 257.5989 0001887 112.1845 247.9486 13.15549848245457
ONEWEB-0230             
1 48769U 21045C   26175.16202130 -.00000006  00000+0 -49165-4 0  9998
2 48769  87.8999 257.8140 0002019  95.4138 264.7223 13.15548870245587
ONEWEB-0237             
1 48770U 21045D   26175.15092575  .00000136  00000+0  32811-3 0  9990
2 48770  87.9000 257.8181 0001797 105.2428 254.8901 13.15547647245306
ONEWEB-0235             
1 48771U 21045E   26176.19038010 -.00000047  00000+0 -15938-3 0  9994
2 48771  87.9007 257.5976 0001823 111.5149 248.6175 13.15548763245431
ONEWEB-0242             
1 48772U 21045F   26176.18403617 -.00000092  00000+0 -27871-3 0  9992
2 48772  87.9011 257.5960 0001829 101.6186 258.5150 13.15547563245471
ONEWEB-0241             
1 48773U 21045G   26176.17136389 -.00000186  00000+0 -52724-3 0  9990
2 48773  87.8995 257.6144 0002068 111.8882 248.2468 13.15548788245387
ONEWEB-0243             
1 48774U 21045H   26175.21430562  .00000144  00000+0  34890-3 0  9991
2 48774  87.8999 257.8187 0001446 101.0389 259.0904 13.15549312245281
ONEWEB-0222             
1 48775U 21045J   26176.18640927 -.00000092  00000+0 -27768-3 0  9997
2 48775  87.9009 257.5934 0002002 106.8358 253.2992 13.15549406245456
ONEWEB-0244             
1 48776U 21045K   26175.14775955  .00000140  00000+0  33860-3 0  9995
2 48776  87.9014 257.7951 0001881 102.6268 257.5072 13.15549358245881
ONEWEB-0247             
1 48777U 21045L   26175.22064796  .00000155  00000+0  37733-3 0  9998
2 48777  87.8999 257.8120 0001304 117.0129 243.1134 13.15548058245334
ONEWEB-0245             
1 48778U 21045M   26175.21589169  .00000166  00000+0  40584-3 0  9994
2 48778  87.9010 257.7927 0002025 105.5871 254.5483 13.15548124245305
ONEWEB-0229             
1 48779U 21045N   26175.21113698  .00000125  00000+0  29823-3 0  9993
2 48779  87.9005 257.7916 0001921 100.4481 259.6866 13.15549416245332
ONEWEB-0228             
1 48780U 21045P   26176.15723806  .00000006  00000+0 -17486-4 0  9999
2 48780  87.9022 257.5962 0001889 102.3229 257.8113 13.15547334245372
ONEWEB-0232             
1 48781U 21045Q   26175.21905468  .00000244  00000+0  61349-3 0  9991
2 48781  87.9013 257.7839 0002022 102.0504 258.0853 13.15546838245575
ONEWEB-0231             
1 48782U 21045R   26176.18561683 -.00000091  00000+0 -27455-3 0  9998
2 48782  87.9007 257.6043 0001930 107.4059 252.7282 13.15549469245396
ONEWEB-0234             
1 48783U 21045S   26175.15870898  .00000012  00000+0 -32804-5 0  9994
2 48783  87.9007 257.7902 0002823 104.0201 256.1244 13.15548920245393
ONEWEB-0238             
1 48784U 21045T   26175.15898529  .00000013  00000+0 -35290-7 0  9991
2 48784  87.9014 257.7851 0002445 102.9890 257.1514 13.15548062245293
ONEWEB-0240             
1 48785U 21045U   26176.16898501 -.00000059  00000+0 -19055-3 0  9992
2 48785  87.9012 257.5942 0002090 109.3887 250.7469 13.15548416245453
ONEWEB-0246             
1 48786U 21045V   26176.16343623 -.00000063  00000+0 -20184-3 0  9993
2 48786  87.9011 257.5993 0001879  99.7698 260.3645 13.15549796245326
ONEWEB-0210             
1 48787U 21045W   26175.14933057  .00000055  00000+0  11123-3 0  9999
2 48787  87.9006 257.7983 0001159 105.0561 255.0698 13.15547379245237
ONEWEB-0214             
1 48788U 21045X   26175.15804993  .00000095  00000+0  21909-3 0  9994
2 48788  87.9012 257.7934 0001729  92.4630 267.6699 13.15549531245209
ONEWEB-0221             
1 48789U 21045Y   26175.16518946 -.00000017  00000+0 -79821-4 0  9999
2 48789  87.9010 257.8005 0001896 105.2004 254.9336 13.15548833245291
ONEWEB-0213             
1 48790U 21045Z   26175.15409452  .00000060  00000+0  12518-3 0  9996
2 48790  87.9009 257.8061 0001753 105.5985 254.5339 13.15547337245350
ONEWEB-0212             
1 48791U 21045AA  26176.19590565  .00000048  00000+0  94651-4 0  9993
2 48791  87.9011 257.5931 0002050 100.2030 259.9332 13.15550381245480
ONEWEB-0227             
1 48792U 21045AB  26176.19512889  .00000000  00000+0 -35124-4 0  9996
2 48792  87.9006 257.5938 0002041 103.0653 257.0705 13.15549176245432
ONEWEB-0226             
1 48793U 21045AC  26176.18877597 -.00000040  00000+0 -14050-3 0  9995
2 48793  87.9003 257.5996 0001759 103.0020 257.1307 13.15546942245401
ONEWEB-0224             
1 48794U 21045AD  26175.16360187  .00000001  00000+0 -31408-4 0  9998
2 48794  87.9001 257.8372 0002643 116.5176 243.6225 13.15547621245195
ONEWEB-0233             
1 48795U 21045AE  26176.00484931 -.00000011  00000+0 -63569-4 0  9992
2 48795  87.9001 257.6773 0001924 108.9024 251.2315 13.15548588245320
ONEWEB-0190             
1 48796U 21045AF  26175.15567759  .00000018  00000+0  13287-4 0  9995
2 48796  87.9004 257.8086 0001538 118.0674 242.0612 13.15547031245282
